FENGYUN 1C DEB          
1 30738U 99025ASY 17345.57671301  .00001311  00000-0  59337-3 0  9992
2 30738  99.3795 208.5024 0063163 295.6732  63.7930 14.22876499556229
